{
  "norad_id": 58708,
  "name": "STARLINK-11079 [DTC]",
  "history": [
    {
      "epoch": "2026-03-28T18:16:47.456832",
      "apogee_km": 361.27702199893065,
      "perigee_km": 358.1971397565603,
      "latitude_deg": 7.9189357083109275,
      "longitude_deg": 123.91939648007974,
      "semi_major_axis_km": 6737.874080877745,
      "eccentricity": 0.00022855,
      "inclination_deg": 53.1609,
      "raan_deg": 179.9292,
      "arg_perigee_deg": 148.0071,
      "mean_anomaly_deg": 212.1086,
      "mean_motion_rev_day": 15.6970639
    }
  ]
}