{"fetched_at":"2026-03-30T06:02:59Z","count":15439,"tles":[{"name":"STARLINK-11079 [DTC]","line1":"1 58708U 24002D   26087.76166038  .00004818  00000+0  44620-4 0  9996","line2":"2 58708  53.1609 179.9292 0002285 148.0071 212.1086 15.69706390129436","category":"Starlink"}]}